{"type": "FeatureCollection", "features": [ {"type": "Feature", "properties": {"norad_id": 37069, "name": "FENGYUN 1C DEB", "group": "fengyun-1c-debris", "lat": -24.787358156158614, "lon": 133.3610585724315, "alt_km": 937.9485195165134, "timestamp": "2025-12-10T21:43:22.376882+00:00", "meta": {"OBJECT_NAME": "FENGYUN 1C DEB", "OBJECT_ID": "1999-025EFD", "EPOCH": "2025-12-04T04:55:22.230624", "MEAN_MOTION": 13.37917724, "ECCENTRICITY": 0.0425847, "INCLINATION": 95.8476, "RA_OF_ASC_NODE": 312.1985, "ARG_OF_PERICENTER": 279.5864, "MEAN_ANOMALY": 75.7415, "EPHEMERIS_TYPE": 0, "CLASSIFICATION_TYPE": "U", "NORAD_CAT_ID": 37069, "ELEMENT_SET_NO": 999, "REV_AT_EPOCH": 87594, "BSTAR": 0.0066764, "MEAN_MOTION_DOT": 5.926e-05, "MEAN_MOTION_DDOT": 0}, "tle": {"line1": "1 37069U 99025EFD 25338.20511841  .00005926  00000+0  66764-2 0  9995", "line2": "2 37069  95.8476 312.1985 0425847 279.5864  75.7415 13.37917724875942"}}, "geometry": {"type": "Point", "coordinates": [133.3610585724315, -24.787358156158614]}}, {"type": "Feature", "properties": {"norad_id": 37077, "name": "FENGYUN 1C DEB", "group": "fengyun-1c-debris", "lat": 6.946261942429234, "lon": -118.95328111385297, "alt_km": 821.015321275826, "timestamp": "2025-12-10T21:43:22.376892+00:00", "meta": {"OBJECT_NAME": "FENGYUN 1C DEB", "OBJECT_ID": "1999-025EFM", "EPOCH": "2025-12-10T04:15:26.292096", "MEAN_MOTION": 14.41185335, "ECCENTRICITY": 0.00955067, "INCLINATION": 99.0349, "RA_OF_ASC_NODE": 59.1671, "ARG_OF_PERICENTER": 336.2622, "MEAN_ANOMALY": 23.4174, "EPHEMERIS_TYPE": 0, "CLASSIFICATION_TYPE": "U", "NORAD_CAT_ID": 37077, "ELEMENT_SET_NO": 999, "REV_AT_EPOCH": 84918, "BSTAR": 0.00049394672, "MEAN_MOTION_DOT": 1.63e-05, "MEAN_MOTION_DDOT": 0}, "tle": {"line1": "1 37077U 99025EFM 25344.17738764  .00001630  00000+0  49395-3 0  9992", "line2": "2 37077  99.0349  59.1671 0095506 336.2622  23.4174 14.41185335849184"}}, "geometry": {"type": "Point", "coordinates": [-118.95328111385297, 6.946261942429234]}}, {"type": "Feature", "properties": {"norad_id": 37079, "name": "FENGYUN 1C DEB", "group": "fengyun-1c-debris", "lat": -76.05484983539924, "lon": -99.1669776717461, "alt_km": 704.2004818255336, "timestamp": "2025-12-10T21:43:22.376904+00:00", "meta": {"OBJECT_NAME": "FENGYUN 1C DEB", "OBJECT_ID": "1999-025EFP", "EPOCH": "2025-12-08T02:44:01.234752", "MEAN_MOTION": 14.59611679, "ECCENTRICITY": 0.00122766, "INCLINATION": 98.8583, "RA_OF_ASC_NODE": 116.7613, "ARG_OF_PERICENTER": 158.0641, "MEAN_ANOMALY": 202.1084, "EPHEMERIS_TYPE": 0, "CLASSIFICATION_TYPE": "U", "NORAD_CAT_ID": 37079, "ELEMENT_SET_NO": 999, "REV_AT_EPOCH": 64548, "BSTAR": 0.0049568396, "MEAN_MOTION_DOT": 0.00023637, "MEAN_MOTION_DDOT": 0}, "tle": {"line1": "1 37079U 99025EFP 25342.11390318  .00023637  00000+0  49568-2 0  9997", "line2": "2 37079  98.8583 116.7613 0012276 158.0641 202.1084 14.59611679645480"}}, "geometry": {"type": "Point", "coordinates": [-99.1669776717461, -76.05484983539924]}}, {"type": "Feature", "properties": {"norad_id": 37081, "name": "FENGYUN 1C DEB", "group": "fengyun-1c-debris", "lat": 38.48515053577532, "lon": 130.23046941887424, "alt_km": 706.1182687784549, "timestamp": "2025-12-10T21:43:22.376913+00:00", "meta": {"OBJECT_NAME": "FENGYUN 1C DEB", "OBJECT_ID": "1999-025EFR", "EPOCH": "2025-12-04T16:05:13.028352", "MEAN_MOTION": 14.13719832, "ECCENTRICITY": 0.026348, "INCLINATION": 98.7084, "RA_OF_ASC_NODE": 131.1485, "ARG_OF_PERICENTER": 11.9086, "MEAN_ANOMALY": 348.8157, "EPHEMERIS_TYPE": 0, "CLASSIFICATION_TYPE": "U", "NORAD_CAT_ID": 37081, "ELEMENT_SET_NO": 999, "REV_AT_EPOCH": 58460, "BSTAR": 0.0070093, "MEAN_MOTION_DOT": 0.00018467, "MEAN_MOTION_DDOT": 0}, "tle": {"line1": "1 37081U 99025EFR 25338.67028968  .00018467  00000+0  70093-2 0  9997", "line2": "2 37081  98.7084 131.1485 0263480  11.9086 348.8157 14.13719832584606"}}, "geometry": {"type": "Point", "coordinates": [130.23046941887424, 38.48515053577532]}}, {"type": "Feature", "properties": {"norad_id": 37400, "name": "FENGYUN 1C DEB", "group": "fengyun-1c-debris", "lat": 30.54970506266748, "lon": 7.713126069926493, "alt_km": 725.847485981335, "timestamp": "2025-12-10T21:43:22.376924+00:00", "meta": {"OBJECT_NAME": "FENGYUN 1C DEB", "OBJECT_ID": "1999-025EFS", "EPOCH": "2025-12-10T08:41:06.536544", "MEAN_MOTION": 13.63640043, "ECCENTRICITY": 0.04016046, "INCLINATION": 98.8379, "RA_OF_ASC_NODE": 181.9494, "ARG_OF_PERICENTER": 142.8432, "MEAN_ANOMALY": 220.1242, "EPHEMERIS_TYPE": 0, "CLASSIFICATION_TYPE": "U", "NORAD_CAT_ID": 37400, "ELEMENT_SET_NO": 999, "REV_AT_EPOCH": 80161, "BSTAR": 0.00064319305, "MEAN_MOTION_DOT": 8.43e-06, "MEAN_MOTION_DDOT": 0}, "tle": {"line1": "1 37400U 99025EFS 25344.36188121  .00000843  00000+0  64319-3 0  9997", "line2": "2 37400  98.8379 181.9494 0401604 142.8432 220.1242 13.63640043801614"}}, "geometry": {"type": "Point", "coordinates": [7.713126069926493, 30.54970506266748]}}, {"type": "Feature", "properties": {"norad_id": 37404, "name": "FENGYUN 1C DEB", "group": "fengyun-1c-debris", "lat": -7.036791230150825, "lon": 166.7455689622108, "alt_km": 760.0563512482258, "timestamp": "2025-12-10T21:43:22.376934+00:00", "meta": {"OBJECT_NAME": "FENGYUN 1C DEB", "OBJECT_ID": "1999-025EFW", "EPOCH": "2025-12-09T23:11:10.608000", "MEAN_MOTION": 14.31626731, "ECCENTRICITY": 0.00443951, "INCLINATION": 98.4529, "RA_OF_ASC_NODE": 346.8831, "ARG_OF_PERICENTER": 170.4527, "MEAN_ANOMALY": 219.5442, "EPHEMERIS_TYPE": 0, "CLASSIFICATION_TYPE": "U", "NORAD_CAT_ID": 37404, "ELEMENT_SET_NO": 999, "REV_AT_EPOCH": 82701, "BSTAR": 0.0009006261, "MEAN_MOTION_DOT": 2.383e-05, "MEAN_MOTION_DDOT": 0}, "tle": {"line1": "1 37404U 99025EFW 25343.96609500  .00002383  00000+0  90063-3 0  9991", "line2": "2 37404  98.4529 346.8831 0044395 170.4527 219.5442 14.31626731827010"}}, "geometry": {"type": "Point", "coordinates": [166.7455689622108, -7.036791230150825]}}, {"type": "Feature", "properties": {"norad_id": 37406, "name": "FENGYUN 1C DEB", "group": "fengyun-1c-debris", "lat": -70.2494742452473, "lon": -118.3940178768618, "alt_km": 781.622658546079, "timestamp": "2025-12-10T21:43:22.376946+00:00", "meta": {"OBJECT_NAME": "FENGYUN 1C DEB", "OBJECT_ID": "1999-025EFY", "EPOCH": "2025-12-08T10:49:08.279328", "MEAN_MOTION": 14.0426894, "ECCENTRICITY": 0.01499328, "INCLINATION": 98.443, "RA_OF_ASC_NODE": 214.8876, "ARG_OF_PERICENTER": 278.7211, "MEAN_ANOMALY": 208.0875, "EPHEMERIS_TYPE": 0, "CLASSIFICATION_TYPE": "U", "NORAD_CAT_ID": 37406, "ELEMENT_SET_NO": 999, "REV_AT_EPOCH": 63172, "BSTAR": 0.0020822256, "MEAN_MOTION_DOT": 3.616e-05, "MEAN_MOTION_DDOT": 0}, "tle": {"line1": "1 37406U 99025EFY 25342.45079027  .00003616  00000+0  20822-2 0  9996", "line2": "2 37406  98.4430 214.8876 0149932 278.7211 208.0875 14.04268940631729"}}, "geometry": {"type": "Point", "coordinates": [-118.3940178768618, -70.2494742452473]}}, {"type": "Feature", "properties": {"norad_id": 37415, "name": "FENGYUN 1C DEB", "group": "fengyun-1c-debris", "lat": -80.86693483868173, "lon": -166.74148901361863, "alt_km": 1034.2684450048955, "timestamp": "2025-12-10T21:43:22.376957+00:00", "meta": {"OBJECT_NAME": "FENGYUN 1C DEB", "OBJECT_ID": "1999-025EGH", "EPOCH": "2025-12-08T13:21:24.699168", "MEAN_MOTION": 13.52085555, "ECCENTRICITY": 0.0285076, "INCLINATION": 98.9817, "RA_OF_ASC_NODE": 90.7824, "ARG_OF_PERICENTER": 192.9583, "MEAN_ANOMALY": 166.412, "EPHEMERIS_TYPE": 0, "CLASSIFICATION_TYPE": "U", "NORAD_CAT_ID": 37415, "ELEMENT_SET_NO": 999, "REV_AT_EPOCH": 62265, "BSTAR": 0.00090162, "MEAN_MOTION_DOT": 7.27e-06, "MEAN_MOTION_DDOT": 0}, "tle": {"line1": "1 37415U 99025EGH 25342.55653587  .00000727  00000+0  90162-3 0  9991", "line2": "2 37415  98.9817  90.7824 0285076 192.9583 166.4120 13.52085555622659"}}, "geometry": {"type": "Point", "coordinates": [-166.74148901361863, -80.86693483868173]}}, {"type": "Feature", "properties": {"norad_id": 37417, "name": "FENGYUN 1C DEB", "group": "fengyun-1c-debris", "lat": 42.28776546610653, "lon": -30.34777599399108, "alt_km": 906.0237787889182, "timestamp": "2025-12-10T21:43:22.376968+00:00", "meta": {"OBJECT_NAME": "FENGYUN 1C DEB", "OBJECT_ID": "1999-025EGK", "EPOCH": "2025-12-07T06:30:00.629568", "MEAN_MOTION": 14.07380066, "ECCENTRICITY": 0.00782242, "INCLINATION": 98.7964, "RA_OF_ASC_NODE": 334.2107, "ARG_OF_PERICENTER": 276.2736, "MEAN_ANOMALY": 82.9527, "EPHEMERIS_TYPE": 0, "CLASSIFICATION_TYPE": "U", "NORAD_CAT_ID": 37417, "ELEMENT_SET_NO": 999, "REV_AT_EPOCH": 68273, "BSTAR": 0.00064539005, "MEAN_MOTION_DOT": 1.072e-05, "MEAN_MOTION_DDOT": 0}, "tle": {"line1": "1 37417U 99025EGK 25341.27084062  .00001072  00000+0  64539-3 0  9990", "line2": "2 37417  98.7964 334.2107 0078224 276.2736  82.9527 14.07380066682737"}}, "geometry": {"type": "Point", "coordinates": [-30.34777599399108, 42.28776546610653]}}, {"type": "Feature", "properties": {"norad_id": 37418, "name": "FENGYUN 1C DEB", "group": "fengyun-1c-debris", "lat": 2.871953625257686, "lon": 58.1176620658798, "alt_km": 2399.3523049346177, "timestamp": "2025-12-10T21:43:22.376979+00:00", "meta": {"OBJECT_NAME": "FENGYUN 1C DEB", "OBJECT_ID": "1999-025EGL", "EPOCH": "2025-12-06T16:12:36.074592", "MEAN_MOTION": 11.95112147, "ECCENTRICITY": 0.10777154, "INCLINATION": 98.6124, "RA_OF_ASC_NODE": 234.8635, "ARG_OF_PERICENTER": 331.8071, "MEAN_ANOMALY": 22.8442, "EPHEMERIS_TYPE": 0, "CLASSIFICATION_TYPE": "U", "NORAD_CAT_ID": 37418, "ELEMENT_SET_NO": 999, "REV_AT_EPOCH": 49412, "BSTAR": 0.0048233577, "MEAN_MOTION_DOT": 1.984e-05, "MEAN_MOTION_DDOT": 0}, "tle": {"line1": "1 37418U 99025EGL 25340.67541753  .00001984  00000+0  48234-2 0  9994", "line2": "2 37418  98.6124 234.8635 1077715 331.8071  22.8442 11.95112147494121"}}, "geometry": {"type": "Point", "coordinates": [58.1176620658798, 2.871953625257686]}}]}